[{"OBJECT_NAME":"STARLINK-3191","OBJECT_ID":"2021-115AY","EPOCH":"2026-03-09T11:18:08.673408","MEAN_MOTION":15.0883744,"ECCENTRICITY":0.00013589,"INCLINATION":53.2176,"RA_OF_ASC_NODE":140.1532,"ARG_OF_PERICENTER":89.6849,"MEAN_ANOMALY":270.4299,"EPHEMERIS_TYPE":0,"CLASSIFICATION_TYPE":"U","NORAD_CAT_ID":49770,"ELEMENT_SET_NO":999,"REV_AT_EPOCH":23676,"BSTAR":-1.9204854e-5,"MEAN_MOTION_DOT":-5.94e-6,"MEAN_MOTION_DDOT":0},{"OBJECT_NAME":"IRIDIUM 33 DEB","OBJECT_ID":"1997-051PF","EPOCH":"2026-03-08T20:08:48.628608","MEAN_MOTION":15.0410284,"ECCENTRICITY":0.00301759,"INCLINATION":86.2075,"RA_OF_ASC_NODE":10.7469,"ARG_OF_PERICENTER":217.121,"MEAN_ANOMALY":142.7938,"EPHEMERIS_TYPE":0,"CLASSIFICATION_TYPE":"U","NORAD_CAT_ID":35080,"ELEMENT_SET_NO":999,"REV_AT_EPOCH":70973,"BSTAR":0.01054144,"MEAN_MOTION_DOT":0.00150308,"MEAN_MOTION_DDOT":0}]
